[{"OBJECT_NAME":"TEN-KOH","OBJECT_ID":"2018-084G","EPOCH":"2026-03-09T23:23:52.653408","MEAN_MOTION":15.02465351,"ECCENTRICITY":0.0011972,"INCLINATION":98.0798,"RA_OF_ASC_NODE":257.1735,"ARG_OF_PERICENTER":91.8355,"MEAN_ANOMALY":268.424,"EPHEMERIS_TYPE":0,"CLASSIFICATION_TYPE":"U","NORAD_CAT_ID":43677,"ELEMENT_SET_NO":999,"REV_AT_EPOCH":40126,"BSTAR":0.00025918134,"MEAN_MOTION_DOT":3.377e-5,"MEAN_MOTION_DDOT":0},{"OBJECT_NAME":"STARLINK-34506","OBJECT_ID":"2025-129W","EPOCH":"2026-03-09T10:27:51.672672","MEAN_MOTION":14.983496,"ECCENTRICITY":0.00034288,"INCLINATION":70.0009,"RA_OF_ASC_NODE":74.9218,"ARG_OF_PERICENTER":263.1042,"MEAN_ANOMALY":96.9727,"EPHEMERIS_TYPE":0,"CLASSIFICATION_TYPE":"U","NORAD_CAT_ID":64432,"ELEMENT_SET_NO":999,"REV_AT_EPOCH":4119,"BSTAR":0.00026476964,"MEAN_MOTION_DOT":3.069e-5,"MEAN_MOTION_DDOT":0}]
